0 ARIANE 5 DEB (SYLDA)
1 44037U 19007D   19237.38777327  .00000680  00000-0  33909-3 0  9992
2 44037   2.5651 190.7268 7280353 345.3510   1.4326  2.27576071  4569
0 ATLAS 5 CENTAUR DEB
1 44040U 14055CA  19236.35304350 -.00000177 +00000-0 +00000-0 0  9997
2 44040 022.3336 015.6858 4826786 114.9064 302.1687 01.88100730005035
0 ATLAS 5 CENTAUR DEB
1 44040U 14055CA  19237.41605231 -.00000171  00000-0  00000+0 0  9990
2 44040  22.3338  15.5881 4826725 115.0841 301.9876  1.88100417  5051
0 GGSE 3 DEB
1 44043U 65016L   19237.36952234  .00000186  00000-0  16058-3 0  9997
2 44043  70.0767 254.1522 0018965   1.0422 359.0704 14.00631328 27075
0 GGSE 3 DEB
1 44043U 65016L   19236.44112616 +.00000187 +00000-0 +16099-3 0  9993
2 44043 070.0773 256.1454 0018973 002.1518 357.9660 14.00630982026943
0 CHEFSAT-2
1 44044U 18092E   19236.87501093 +.00002301 +00000-0 +76509-4 0  9997
2 44044 051.6406 045.1613 0011256 329.2864 030.7459 15.35547369029578
0 CHEFSAT-2
1 44044U 18092E   19237.78614311  .00002254  00000-0  75148-4 0  9991
2 44044  51.6407  40.7448 0011291 332.6242  27.4144 15.35552033 29717
0 OBJECT F
1 44045U 18092F   19237.88285231  .00000817  00000-0  34709-4 0  9999
2 44045  51.6455  40.6216 0011158 334.1636  25.8788 15.35138785 29719
0 OBJECT F
1 44045U 18092F   19236.90637554 +.00001288 +00000-0 +48292-4 0  9995
2 44045 051.6448 045.3507 0011107 330.8030 029.2331 15.35138565029562
0 EGYPTSAT A
1 44047U 19008A   19237.21119835  .00000242  00000-0  46136-4 0  9991
2 44047  98.0179 300.6860 0001144  89.7478 270.3862 14.72339946 27152
0 EGYPTSAT A
1 44047U 19008A   19237.82283927  .00000207  00000-0  40535-4 0  9990
2 44047  98.0181 301.2893 0001184  88.4911 271.6421 14.72339915 27241
0 EGYPTSAT A
1 44047U 19008A   19237.48303863  .00000237  00000-0  45297-4 0  9997
2 44047  98.0178 300.9540 0001149  89.0182 271.1155 14.72340053 27198
0 NUSANTARA SATU
1 44048U 19009A   19237.44901645 -.00000240  00000-0  00000+0 0  9990
2 44048   0.0177 115.7851 0002011  45.5717 119.7150  1.00273125  1824
0 FALCON 9 R/B
1 44050U 19009C   19236.69317573 +.00000375 +00000-0 +18205-3 0  9998
2 44050 026.9422 341.7793 8350945 228.2046 023.5250 01.07992840001707
0 H-2A DEB
1 44051U 18084M   19236.60206041 +.00038545 +00000-0 +21246-2 0  9997
2 44051 097.8406 354.6104 0037431 159.2081 201.0610 15.13271584029779
0 H-2A DEB
1 44052U 18084N   19236.64056841 +.00013998 +00000-0 +91428-3 0  9998
2 44052 097.8043 353.3621 0036098 176.9154 183.2312 15.07402375029904
0 H-2A DEB
1 44053U 18084P   19236.31840378 +.00507777 +00000-0 +93426-2 0  9991
2 44053 097.7251 354.9750 0008445 223.4550 136.6178 15.47275515030023
0 H-2A DEB
1 44054U 18084Q   19236.64469664 +.00039363 +00000-0 +22490-2 0  9997
2 44054 097.8408 354.3209 0036203 124.4754 235.9753 15.12022624029912
0 ONEWEB-0012
1 44057U 19010A   19236.85735489 -.00000103 +00000-0 -30882-3 0  9991
2 44057 087.8987 033.7045 0001571 103.8061 256.3244 13.15300726023654
0 ONEWEB-0012
1 44057U 19010A   19237.84628621 -.00000117  00000-0 -34736-3 0  9997
2 44057  87.8989  33.5072 0001582 104.0594 256.0712 13.15300777 23787
0 ONEWEB-0010
1 44058U 19010B   19236.85898199 -.00000072 +00000-0 -22640-3 0  9998
2 44058 087.8981 033.7047 0001569 101.8061 258.3246 13.15295820023704
0 ONEWEB-0007
1 44060U 19010D   19236.86055311 -.00000080 +00000-0 -24716-3 0  9998
2 44060 087.8997 033.7054 0001825 093.8082 266.3257 13.15295789023828
0 ONEWEB-0006
1 44061U 19010E   19236.86211063 -.00000070 +00000-0 -22084-3 0  9992
2 44061 087.8996 033.7046 0001659 099.8107 260.3211 13.15294553023864
0 ONEWEB-0011
1 44062U 19010F   19236.86376701 -.00000035 +00000-0 -12646-3 0  9998
2 44062 087.9018 033.6939 0001464 103.6108 256.5185 13.15290037023860
0 CREW DRAGON DEMO-1 DEB
1 44064U 19011B   19237.61856628  .00005018  00000-0  70200-4 0  9991
2 44064  51.6399   9.1819 0004244  19.0922 341.0213 15.58777456 26522
0 S5
1 44065U 19009D   19237.26964536 -.00000164  00000-0  00000+0 0  9992
2 44065   0.3163  97.5965 0004013  59.5318 202.8956  0.99335200  1738
0 S5 DEB
1 44066U 19009E   19235.87218002 +.00000058 +00000-0 +00000-0 0  9990
2 44066 000.3139 097.5914 0012261 078.2596 184.1659 00.98982275001726
0 S5 DEB
1 44066U 19009E   19236.88244303  .00000068  00000-0  00000+0 0  9995
2 44066   0.3163  97.5821 0012285  78.5588 183.8752  0.98982333  1736
0 CHINASAT 6C
1 44067U 19012A   19236.89285306 -.00000341 +00000-0 +00000-0 0  9995
2 44067 000.0669 267.1282 0003537 339.5002 177.6958 01.00274609001780
0 CHINASAT 6C
1 44067U 19012A   19237.89223250 -.00000344  00000-0  00000+0 0  9998
2 44067   0.0649 267.3197 0003593 341.5838 176.1856  1.00272930  1794
0 SOYUZ MS-12
1 44069U 19013A   19236.55506554 -.00000193 +00000-0 +46515-5 0  9993
2 44069 051.6435 022.1079 0007512 319.6736 166.0410 15.50391932025272
0 WGS 10 (USA 291)
1 44071U 19014A   19236.75952234 +.00000014 +00000-0 +00000-0 0  9994
2 44071 000.0166 115.1642 0000505 112.1063 257.0266 01.00271737001697
0 WGS 10 (USA 291)
1 44071U 19014A   19237.22429794  .00000013  00000-0  00000+0 0  9995
2 44071   0.0173 114.5637 0000483 110.6264  66.8852  1.00272190  1661
0 PRISMA
1 44072U 19015A   19236.87271957 -.00000053 +00000-0 +00000-0 0  9999
2 44072 097.8923 310.8816 0001403 084.7128 275.4243 14.83656014023091
0 PRISMA
1 44072U 19015A   19237.14248864 -.00000053  00000-0  00000+0 0  9990
2 44072  97.8922 311.1484 0001374  85.2057 274.9317 14.83656030 23138
0 PRISMA
1 44072U 19015A   19237.47969996 -.00000053  00000-0  00000+0 0  9992
2 44072  97.8922 311.4817 0001368  84.0982 276.0390 14.83656045 23183
0 PRISMA
1 44072U 19015A   19237.81691148 -.00000053  00000-0  00000+0 0  9991
2 44072  97.8918 311.8145 0001372  82.3780 277.7587 14.83656005 23236
0 R3D2
1 44073U 19016A   19237.42203996 -.00000229  00000-0  00000+0 0  9995
2 44073  39.5168 259.5023 0008027 352.8212   7.3004 15.47179898 23130
0 R3D2
1 44073U 19016A   19236.45389590 -.00000229 +00000-0 +00000-0 0  9993
2 44073 039.5175 265.4426 0009438 352.1976 007.8674 15.47176037022991
0 CZ-3B R/B
1 44077U 19017B   19235.86822470 +.00003632 +13444-5 +35778-3 0  9995
2 44077 027.2859 007.2632 7205755 273.7848 014.2388 02.40478477003469
0 EMISAT
1 44078U 19018A   19237.16647317 -.00000030  00000-0  39825-5 0  9995
2 44078  98.3707 295.4706 0019098 170.4841 189.6715 14.43706745 21061
0 EMISAT
1 44078U 19018A   19237.44369961 -.00000027  00000-0  46171-5 0  9990
2 44078  98.3707 295.7432 0019117 169.6554 190.5033 14.43706753 21101
0 EMISAT
1 44078U 19018A   19237.79023266 -.00000027  00000-0  47106-5 0  9992
2 44078  98.3707 296.0840 0019139 168.6299 191.5328 14.43706765 21153
0 FLOCK 4A 1
1 44079U 19018B   19237.75382650  .00001330  00000-0  62016-4 0  9997
2 44079  97.4510 296.9129 0014543 120.6655 239.6016 15.21531995 22251
0 FLOCK 4A 1
1 44079U 19018B   19237.16193779  .00001267  00000-0  59234-4 0  9991
2 44079  97.4510 296.3269 0014512 122.5148 237.7492 15.21530273 22169
0 FLOCK 4A 2
1 44080U 19018C   19237.16067360  .00001160  00000-0  54526-4 0  9990
2 44080  97.4513 296.3328 0014788 123.1452 237.1205 15.21519462 22163
0 FLOCK 4A 2
1 44080U 19018C   19237.68680078  .00001203  00000-0  56407-4 0  9992
2 44080  97.4513 296.8536 0014816 121.4623 238.8063 15.21520801 22240
0 FLOCK 4A 3
1 44081U 19018D   19237.81505614  .00001278  00000-0  59695-4 0  9994
2 44081  97.4512 296.9869 0014926 122.6172 237.6506 15.21546264 22277
0 FLOCK 4A 3
1 44081U 19018D   19237.15740822  .00001212  00000-0  56781-4 0  9994
2 44081  97.4513 296.3358 0014887 124.7022 235.5619 15.21544404 22173
0 FLOCK 4A 4
1 44082U 19018E   19237.15135116  .00001243  00000-0  58000-4 0  9999
2 44082  97.4513 296.3460 0014965 125.0385 235.2257 15.21622177 22169
0 FLOCK 4A 4
1 44082U 19018E   19237.80896542  .00001314  00000-0  61145-4 0  9991
2 44082  97.4512 296.9971 0014999 122.9372 237.3308 15.21624129 22260
0 ASTROCAST-02
1 44083U 19018F   19237.74802190  .00000273  00000-0  15239-4 0  9997
2 44083  97.4632 297.1778 0015369 126.7960 233.4689 15.21423129 22265
0 ASTROCAST-02
1 44083U 19018F   19237.15609151  .00000249  00000-0  14173-4 0  9993
2 44083  97.4633 296.5910 0015339 128.7012 231.5598 15.21422674 22176
0 ASTROCAST-02
1 44083U 19018F   19237.41917175  .00000266  00000-0  14945-4 0  9996
2 44083  97.4633 296.8518 0015354 127.8485 232.4143 15.21422890 22215
0 LEMUR-2 JOHANLORAN
1 44084U 19018G   19236.86861599 +.00001222 +00000-0 +56707-4 0  9998
2 44084 097.4516 296.1138 0015095 128.5074 231.7518 15.21848324022134
0 LEMUR-2 JOHANLORAN
1 44084U 19018G   19237.72338749  .00001279  00000-0  59204-4 0  9997
2 44084  97.4515 296.9605 0015146 125.8069 234.4577 15.21850728 22250
0 LEMUR-2 BEAUDACIOUS
1 44085U 19018H   19237.72074659  .00001226  00000-0  56846-4 0  9996
2 44085  97.4517 296.9656 0015107 126.4148 233.8483 15.21867169 22257
0 LEMUR-2 VICTOR-ANDREW
1 44087U 19018K   19237.64502549  .00001411  00000-0  64749-4 0  9990
2 44087  97.4520 296.9196 0015120 127.9286 232.3319 15.21993320 22257
0 LEMUR-2 VICTOR-ANDREW
1 44087U 19018K   19236.72458840 +.00001352 +00000-0 +62187-4 0  9990
2 44087 097.4522 296.0077 0015052 130.7885 229.4660 15.21990468022110
0 FLOCK 4A 17
1 44088U 19018L   19236.86644747 +.00001271 +00000-0 +58867-4 0  9999
2 44088 097.4518 296.1228 0015248 130.4046 229.8523 15.21856218022136
0 FLOCK 4A 17
1 44088U 19018L   19237.12945274  .00001274  00000-0  58994-4 0  9992
2 44088  97.4517 296.3833 0015263 129.5768 230.6819 15.21856952 22162
0 FLOCK 4A 17
1 44088U 19018L   19237.78696572  .00001350  00000-0  62309-4 0  9998
2 44088  97.4517 297.0346 0015306 127.4936 232.7695 15.21859021 22267
